ONEWEB-0603             
1 54667U 22166AB  23224.92038936  .00000007  00000+0 -15060-4 0  9991
2 54667  87.9201  90.9189 0001635  62.0368 298.0932 13.21824676 34643
ONEWEB-0604             
1 54668U 22166AC  23224.60498502 -.00000076  00000+0 -21549-3 0  9991
2 54668  87.9192  90.9840 0001336  62.6854 297.4416 13.21825203 34570
ONEWEB-0605             
1 54669U 22166AD  23224.14448589  .00000057  00000+0  10603-3 0  9997
2 54669  87.9157  91.1039 0002058  67.0447 293.0904 13.21828319 34580
ONEWEB-0606             
1 54670U 22166AE  23224.09086267  .00000026  00000+0  32138-4 0  9998
2 54670  87.9234  91.0853 0002047  89.1247 271.0121 13.21829448 34628
ONEWEB-0607             
1 54671U 22166AF  23224.58604257  .00000029  00000+0  38271-4 0  9995
2 54671  87.9191  90.9886 0001698  71.6761 288.4557 13.21827970 34660
ONEWEB-0608             
1 54672U 22166AG  23225.04653722  .00000121  00000+0  26157-3 0  9991
2 54672  87.9143  90.9006 0001976  59.9989 300.1341 13.21823520 34730
ONEWEB-0610             
1 54673U 22166AH  23224.11925302  .00000067  00000+0  13123-3 0  9993
2 54673  87.9129  91.0792 0001864  60.2735 299.8584 13.21828406 34527
ONEWEB-0611             
1 54674U 22166AJ  23224.03724772  .00000113  00000+0  24183-3 0  9993
2 54674  87.9201  91.0978 0001836  97.7571 262.3772 13.21824441 34504
